SatCatId,ObjectName,LaunchYear,OrbitalPeriod,LaunchMass,StatusCode,Inclination,Status,UcsData,OrbitClassEstimated,LaunchSiteCountry,Owner,UseType,Purpose,LaunchVehicleClass,TLE1,TLE2,MeanMotion,Eccentricity,OrbitClass
14234,ARABSAT-1DR (TELSTAR 3A),1983,1446.94,-1.0,-,14.1,Inactive,0,GSO,USA,Arabsat,Unknown,Unknown,Unknown,1 14234U 83077A   25096.25187147  .00000072  00000+0  00000+0 0  9993,2 14234  14.0957 345.1631 0024993 159.0641 201.0082  0.99520094 41992,0.99520094,0.0024993,GSO
14240,COSMOS 1486,1983,100.37,-1.0,UNK,74.05,Inactive,0,LEO,Russia,Russia/USSR,Unknown,Unknown,Unknown,1 14240U 83079A   25097.55744799  .00000290  00000+0  11140-3 0  9991,2 14240  74.0550 128.1286 0013118 158.2854 315.0339 14.34684158179273,14.34684158,0.0013118,LEO
6052,INTELSAT 4-F5,1972,1438.76,-1.0,-,6.8,Inactive,0,GSO,USA,INTELSAT,Unknown,Unknown,Unknown,1 06052U 72041A   25097.06707528 -.00000040  00000+0  00000+0 0  9998,2 06052   6.8030 291.1412 0002165 290.3030  69.4874  1.00086196 42299,1.00086196,0.0002165,GSO
14248,SAKURA-2B (CS-2B),1983,1457.31,-1.0,-,11.74,Inactive,0,GSO,Japan,Japan,Unknown,Unknown,Unknown,1 14248U 83081A   25097.32182815 -.00000018  00000+0  00000+0 0  9990,2 14248  11.7447 327.3095 0003859  50.2131 151.6099  0.98811938119370,0.98811938,0.0003859,GSO
6059,COSMOS 494,1972,100.25,-1.0,UNK,74.06,Inactive,0,LEO,Russia,Russia/USSR,Unknown,Unknown,Unknown,1 06059U 72043A   25097.58366253  .00000291  00000+0  10817-3 0  9998,2 06059  74.0553 161.1710 0009532  41.5794 318.6082 14.36353129761595,14.36353129,0.0009532,LEO
22446,NAVSTAR 30 (USA 88),1993,765.57,-1.0,-,53.54,Inactive,0,MEO,USA,USA,Unknown,Unknown,Unknown,1 22446U 93007A   25095.55463963  .00000001  00000+0  00000+0 0  9998,2 22446  53.5375 258.8445 0027152  37.4261   1.9195  1.88094964225771,1.88094964,0.0027152,MEO
14258,COSMOS 1490 [GLONASS],1983,675.73,-1.0,-,64.61,Inactive,0,MEO,Kazakhstan,Russia/USSR,Unknown,Unknown,Unknown,1 14258U 83084A   25097.25140262  .00000052  00000+0  00000+0 0  9993,2 14258  64.6085  87.7747 0015053  11.1328 126.9183  2.13103254324157,2.13103254,0.0015053,MEO
14259,COSMOS 1491 [GLONASS],1983,668.42,-1.0,-,64.75,Inactive,0,MEO,Kazakhstan,Russia/USSR,Unknown,Unknown,Unknown,1 14259U 83084B   25095.89211953  .00000024  00000+0  00000+0 0  9997,2 14259  64.7456  73.4460 0021230 306.5779 243.3586  2.15434615326704,2.15434615,0.002123,MEO
14260,COSMOS 1492 [GLONASS],1983,676.82,-1.0,-,64.57,Inactive,0,MEO,Kazakhstan,Russia/USSR,Unknown,Unknown,Unknown,1 14260U 83084C   25097.31464512  .00000055  00000+0  00000+0 0  9993,2 14260  64.5727  89.4812 0001801 339.7168 171.5157  2.12758989322303,2.12758989,0.0001801,MEO
6073,COSMOS 482 DESCENT CRAFT,1972,91.3,-1.0,UNK,51.96,Inactive,0,LEO,Kazakhstan,Russia/USSR,Unknown,Unknown,Unknown,1 06073U 72023E   25097.57130857  .00427836  10728-4  18488-3 0  9993,2 06073  51.9648  53.8776 0261894 339.5480  19.5188 15.76582540746146,15.7658254,0.0261894,LEO
6079,METEOR 1-12,1972,102.6,-1.0,UNK,81.23,Inactive,0,LEO,Russia,Russia/USSR,Unknown,Unknown,Unknown,1 06079U 72049A   25097.24424976  .00000295  00000+0  18040-3 0  9996,2 06079  81.2282  47.8985 0009647 252.4627 107.5486 14.03489229699953,14.03489229,0.0009647,LEO
22487,COSMOS 2233,1993,104.65,-1.0,UNK,82.94,Inactive,0,LEO,Russia,Russia/USSR,Unknown,Unknown,Unknown,1 22487U 93008A   25097.58440544  .00000092  00000+0  79124-4 0  9997,2 22487  82.9444 145.7367 0036599 252.2390 219.8948 13.75992429610115,13.75992429,0.0036599,LEO
22489,OXP 1,1993,99.54,-1.0,UNK,24.97,Inactive,0,LEO,USA,USA,Unknown,Unknown,Unknown,1 22489U 93009A   25097.04375216  .00001000  00000+0  21909-3 0  9991,2 22489  24.9659  10.5643 0039651 230.9382 128.7593 14.46687929697959,14.46687929,0.0039651,LEO
14307,RADUGA 13,1983,1466.76,-1.0,-,10.37,Inactive,0,GSO,Kazakhstan,Russia/USSR,Unknown,Unknown,Unknown,1 14307U 83088A   25097.29081964 -.00000171  00000+0  00000+0 0  9992,2 14307  10.3708 315.5658 0017162  58.4905 118.6039  0.98175381114665,0.98175381,0.0017162,GSO
6117,COSMOS 504,1972,113.96,-1.0,UNK,74.03,Inactive,0,LEO,Russia,Russia/USSR,Unknown,Unknown,Unknown,1 06117U 72057A   25097.63317194  .00000007  00000+0  12776-3 0  9995,2 06117  74.0254 257.4298 0112316 297.5567 136.1954 12.63615243431584,12.63615243,0.0112316,LEO
6118,COSMOS 505,1972,114.3,-1.0,UNK,74.02,Inactive,0,LEO,Russia,Russia/USSR,Unknown,Unknown,Unknown,1 06118U 72057B   25097.24826314  .00000022  00000+0  21569-3 0  9999,2 06118  74.0246  83.2875 0092238 153.1314 219.3462 12.59811956424178,12.59811956,0.0092238,LEO
6119,COSMOS 506,1972,114.63,-1.0,UNK,74.03,Inactive,0,LEO,Russia,Russia/USSR,Unknown,Unknown,Unknown,1 06119U 72057C   25097.57869652  .00000011  00000+0  16117-3 0  9999,2 06119  74.0251 258.0214 0072949 349.7159  76.8181 12.56197858417318,12.56197858,0.0072949,LEO
6120,COSMOS 507,1972,114.96,-1.0,UNK,74.03,Inactive,0,LEO,Russia,Russia/USSR,Unknown,Unknown,Unknown,1 06120U 72057D   25097.29675580  .00000014  00000+0  19088-3 0  9998,2 06120  74.0261  69.9944 0054358 186.0066 279.8619 12.52647907410374,12.52647907,0.0054358,LEO
6121,COSMOS 508,1972,115.3,-1.0,UNK,74.02,Inactive,0,LEO,Russia,Russia/USSR,Unknown,Unknown,Unknown,1 06121U 72057E   25097.57995044 -.00000010  00000+0  40756-4 0  9994,2 06121  74.0256 249.0882 0033609  28.2830  42.8157 12.48893990403314,12.4889399,0.0033609,LEO
6122,COSMOS 509,1972,115.66,-1.0,UNK,74.03,Inactive,0,LEO,Russia,Russia/USSR,Unknown,Unknown,Unknown,1 06122U 72057F   25097.39296149  .00000013  00000+0  20163-3 0  9996,2 06122  74.0255  75.4552 0016499 266.4197 210.2886 12.44989307395751,12.44989307,0.0016499,LEO
6123,COSMOS 510,1972,116.03,-1.0,UNK,74.03,Inactive,0,LEO,Russia,Russia/USSR,Unknown,Unknown,Unknown,1 06123U 72057G   25097.61652722  .00000007  00000+0  16913-3 0  9996,2 06123  74.0252 260.9093 0009331 239.5086 195.7205 12.41067143388278,12.41067143,0.0009331,LEO
6124,COSMOS 511,1972,116.42,-1.0,UNK,74.02,Inactive,0,LEO,Russia,Russia/USSR,Unknown,Unknown,Unknown,1 06124U 72057H   25097.29677848  .00000010  00000+0  19216-3 0  9990,2 06124  74.0236  98.2211 0030934 110.9503 260.8545 12.36875001380226,12.36875001,0.0030934,LEO
6126,LANDSAT 1 (ERTS 1),1972,103.02,-1.0,-,99.37,Inactive,0,LEO,USA,USA,Unknown,Unknown,Unknown,1 06126U 72058A   25097.54539502  .00000354  00000+0  28351-3 0  9996,2 06126  99.3717 114.0932 0008198   9.6226 350.5091 13.97786137687099,13.97786137,0.0008198,LEO
14318,INSAT-1B,1983,1434.98,-1.0,-,11.77,Inactive,0,GSO,USA,India,Unknown,Unknown,Unknown,1 14318U 83089B   25097.55872972 -.00000380  00000+0  00000+0 0  9993,2 14318  11.7680 329.9542 0008468 237.2286 300.2331  1.00349529120842,1.00349529,0.0008468,GSO
22512,COSMOS 2234 [GLONASS],1993,675.73,-1.0,-,64.65,Inactive,0,MEO,Kazakhstan,Russia/USSR,Unknown,Unknown,Unknown,1 22512U 93010A   25095.34886972  .00000042  00000+0  00000+0 0  9997,2 22512  64.6484  85.1065 0022886 214.5100 317.6315  2.13103607249802,2.13103607,0.0022886,MEO
22513,COSMOS 2236 [GLONASS],1993,675.72,-1.0,-,64.64,Inactive,0,MEO,Kazakhstan,Russia/USSR,Unknown,Unknown,Unknown,1 22513U 93010B   25096.18203867  .00000046  00000+0  00000+0 0  9991,2 22513  64.6432  84.9818 0004209  72.8079 104.2085  2.13104554250064,2.13104554,0.0004209,MEO
22514,COSMOS 2235 [GLONASS],1993,675.73,-1.0,-,64.66,Inactive,0,MEO,Kazakhstan,Russia/USSR,Unknown,Unknown,Unknown,1 22514U 93010C   25095.54041426  .00000043  00000+0  00000+0 0  9999,2 22514  64.6604  85.3211 0009042 216.2742 236.5720  2.13102530249963,2.1310253,0.0009042,MEO
14328,SATCOM 2R,1983,1448.6,-1.0,UNK,14.54,Inactive,0,GSO,USA,USA,Unknown,Unknown,Unknown,1 14328U 83094A   25097.10738993 -.00000118  00000+0  00000+0 0  9994,2 14328  14.5419 349.1701 0015616  63.2833 275.6185  0.99406801151214,0.99406801,0.0015616,GSO
6148,COSMOS 514,1972,104.2,-1.0,UNK,82.96,Inactive,0,LEO,Russia,Russia/USSR,Unknown,Unknown,Unknown,1 06148U 72062A   25097.57947296  .00000109  00000+0  86910-4 0  9995,2 06148  82.9638 261.4838 0008813 303.1933 127.0571 13.82001091653373,13.82001091,0.0008813,LEO
6153,OAO 3 (COPERNICUS),1972,98.65,-1.0,UNK,35.01,Inactive,0,LEO,USA,USA,Unknown,Unknown,Unknown,1 06153U 72065A   25097.24718294  .00001014  00000+0  21408-3 0  9998,2 06153  35.0062  53.6012 0007258 286.7871 217.9078 14.59641575797005,14.59641575,0.0007258,LEO
6154,COSMOS 516,1972,104.52,-1.0,UNK,64.81,Inactive,0,LEO,Kazakhstan,Russia/USSR,Unknown,Unknown,Unknown,1 06154U 72066A   25097.62758682 -.00000043  00000+0  44689-4 0  9996,2 06154  64.8098 234.4035 0084749 230.2475 129.1093 13.77785819647917,13.77785819,0.0084749,LEO
6173,TRIAD 1,1972,99.18,-1.0,UNK,90.0,Inactive,0,LEO,USA,USA,Unknown,Unknown,Unknown,1 06173U 72069A   25097.59856882  .00001756  00000+0  42459-3 0  9990,2 06173  90.0012 208.1706 0052795  88.1742 283.5534 14.51933786767358,14.51933786,0.0052795,LEO
14365,GALAXY 2 (G-2),1983,1436.9,-1.0,-,13.92,Inactive,0,GSO,USA,USA,Unknown,Unknown,Unknown,1 14365U 83098A   25096.96100336 -.00000218  00000+0  00000+0 0  9997,2 14365  13.9216 345.2077 0004800  91.3234  81.3601  1.00216218127869,1.00216218,0.00048,GSO
22557,RADUGA 29,1993,1436.13,-1.0,-,14.08,Inactive,0,GSO,Kazakhstan,Russia/USSR,Unknown,Unknown,Unknown,1 22557U 93013A   25096.89627748  .00000030  00000+0  00000+0 0  9991,2 22557  14.0795 348.3588 0004585 163.3996  16.5258  1.00268751117317,1.00268751,0.0004585,GSO
22561,START 1,1993,101.23,-1.0,UNK,75.76,Inactive,0,LEO,Russia,Russia/USSR,Unknown,Unknown,Unknown,1 22561U 93014A   25097.16586845  .00000389  00000+0  14910-3 0  9996,2 22561  75.7643 357.2952 0192662  91.6022 270.7210 14.22447709661865,14.22447709,0.0192662,LEO
22563,UFO 1 (USA 98),1993,1450.82,-1.0,-,24.76,Inactive,0,GSO,USA,USA,Unknown,Unknown,Unknown,1 22563U 93015A   25097.24612965 -.00000220  00000+0  00000+0 0  9997,2 22563  24.7540  79.1135 0005842 269.9408 269.3730  0.99254611120375,0.99254611,0.0005842,GSO
